EUTELSAT 21B            
1 38992U 12062B   26025.57648970  .00000144  00000+0  00000+0 0  9990
2 38992   0.0679  16.3711 0002912 291.3596  46.2527  1.00272750 48397
EUTELSAT 70B            
1 39020U 12069A   26025.58619641 -.00000029  00000+0  00000+0 0  9997
2 39020   0.0617   4.5206 0003269 273.8005 128.0665  1.00271457 48076
EUTELSAT 117 WEST A     
1 39122U 13012A   26025.54901620  .00000001  00000+0  00000+0 0  9995
2 39122   0.0105  48.1109 0003037 261.4198 256.1487  1.00270416 47007
EUTELSAT 7B             
1 39163U 13022A   26025.57345635  .00000062  00000+0  00000+0 0  9999
2 39163   0.0661   4.2007 0005720 329.5198   4.5841  1.00272262 46511
EXPRESS-AT1             
1 39612U 14010A   26024.44210258  .00000094  00000+0  00000+0 0  9998
2 39612   0.0102  24.9003 0000386 133.2819 180.7244  1.00272516 43375
EXPRESS-AT2             
1 39613U 14010B   26025.17184865 -.00000267  00000+0  00000+0 0  9997
2 39613   0.0101  40.8302 0001778 233.4502  51.9164  1.00272544 43069
EUTELSAT 3B             
1 39773U 14030A   26025.57284968  .00000034  00000+0  00000+0 0  9996
2 39773   0.0621 352.2498 0003253 258.1644  83.7645  1.00270337 42637
EUTELSAT 115 WEST B     
1 40425U 15010B   26025.54944954 -.00000011  00000+0  00000+0 0  9992
2 40425   0.0085 184.3379 0000205 235.3694 148.0258  1.00271625 39963
